[{"OBJECT_NAME":"ONEWEB-0375","OBJECT_ID":"2021-090Y","EPOCH":"2025-11-21T10:48:48.725280","MEAN_MOTION":13.20773021,"ECCENTRICITY":0.000135,"INCLINATION":87.9178,"RA_OF_ASC_NODE":315.8651,"ARG_OF_PERICENTER":99.8235,"MEAN_ANOMALY":260.3051,"EPHEMERIS_TYPE":0,"CLASSIFICATION_TYPE":"U","NORAD_CAT_ID":49301,"ELEMENT_SET_NO":999,"REV_AT_EPOCH":20310,"BSTAR":-0.00016386,"MEAN_MOTION_DOT":-5.4e-7,"MEAN_MOTION_DDOT":0},{"OBJECT_NAME":"ONEWEB-0376","OBJECT_ID":"2021-090Z","EPOCH":"2025-11-21T10:48:23.889600","MEAN_MOTION":13.19726039,"ECCENTRICITY":0.000207,"INCLINATION":87.9213,"RA_OF_ASC_NODE":346.2876,"ARG_OF_PERICENTER":93.4334,"MEAN_ANOMALY":266.7036,"EPHEMERIS_TYPE":0,"CLASSIFICATION_TYPE":"U","NORAD_CAT_ID":49302,"ELEMENT_SET_NO":999,"REV_AT_EPOCH":19905,"BSTAR":-4.0465e-5,"MEAN_MOTION_DOT":-3.0e-8,"MEAN_MOTION_DDOT":0},{"OBJECT_NAME":"ONEWEB-0377","OBJECT_ID":"2021-090AA","EPOCH":"2025-11-21T12:17:38.793120","MEAN_MOTION":13.20773312,"ECCENTRICITY":0.0001678,"INCLINATION":87.9182,"RA_OF_ASC_NODE":315.8524,"ARG_OF_PERICENTER":83.3406,"MEAN_ANOMALY":276.7918,"EPHEMERIS_TYPE":0,"CLASSIFICATION_TYPE":"U","NORAD_CAT_ID":49303,"ELEMENT_SET_NO":999,"REV_AT_EPOCH":20310,"BSTAR":0.00010602,"MEAN_MOTION_DOT":5.6e-7,"MEAN_MOTION_DDOT":0},{"OBJECT_NAME":"ONEWEB-0378","OBJECT_ID":"2021-090AB","EPOCH":"2025-11-21T11:00:21.305952","MEAN_MOTION":13.20774719,"ECCENTRICITY":0.0001746,"INCLINATION":87.9184,"RA_OF_ASC_NODE":315.8777,"ARG_OF_PERICENTER":92.2129,"MEAN_ANOMALY":267.9204,"EPHEMERIS_TYPE":0,"CLASSIFICATION_TYPE":"U","NORAD_CAT_ID":49304,"ELEMENT_SET_NO":999,"REV_AT_EPOCH":20236,"BSTAR":5.3703e-5,"MEAN_MOTION_DOT":3.5e-7,"MEAN_MOTION_DDOT":0},{"OBJECT_NAME":"ONEWEB-0379","OBJECT_ID":"2021-090AC","EPOCH":"2025-11-21T11:09:07.005024","MEAN_MOTION":13.14503632,"ECCENTRICITY":0.0001848,"INCLINATION":87.8985,"RA_OF_ASC_NODE":331.0907,"ARG_OF_PERICENTER":95.3002,"MEAN_ANOMALY":264.8338,"EPHEMERIS_TYPE":0,"CLASSIFICATION_TYPE":"U","NORAD_CAT_ID":49305,"ELEMENT_SET_NO":999,"REV_AT_EPOCH":20027,"BSTAR":0.0005025,"MEAN_MOTION_DOT":1.99e-6,"MEAN_MOTION_DDOT":0},{"OBJECT_NAME":"ONEWEB-0380","OBJECT_ID":"2021-090AD","EPOCH":"2025-11-21T10:43:49.931616","MEAN_MOTION":13.19726871,"ECCENTRICITY":0.000164,"INCLINATION":87.9209,"RA_OF_ASC_NODE":346.3113,"ARG_OF_PERICENTER":94.1716,"MEAN_ANOMALY":265.9604,"EPHEMERIS_TYPE":0,"CLASSIFICATION_TYPE":"U","NORAD_CAT_ID":49306,"ELEMENT_SET_NO":999,"REV_AT_EPOCH":19902,"BSTAR":-0.00033587,"MEAN_MOTION_DOT":-1.22e-6,"MEAN_MOTION_DDOT":0},{"OBJECT_NAME":"ONEWEB-0381","OBJECT_ID":"2021-090AE","EPOCH":"2025-11-21T12:12:53.451072","MEAN_MOTION":13.20773406,"ECCENTRICITY":0.0001592,"INCLINATION":87.918,"RA_OF_ASC_NODE":315.8567,"ARG_OF_PERICENTER":92.3425,"MEAN_ANOMALY":267.789,"EPHEMERIS_TYPE":0,"CLASSIFICATION_TYPE":"U","NORAD_CAT_ID":49307,"ELEMENT_SET_NO":999,"REV_AT_EPOCH":20241,"BSTAR":8.9418e-5,"MEAN_MOTION_DOT":4.9e-7,"MEAN_MOTION_DDOT":0},{"OBJECT_NAME":"ONEWEB-0382","OBJECT_ID":"2021-090AF","EPOCH":"2025-11-21T11:54:43.568640","MEAN_MOTION":13.20773056,"ECCENTRICITY":0.0001654,"INCLINATION":87.9185,"RA_OF_ASC_NODE":315.854,"ARG_OF_PERICENTER":97.1752,"MEAN_ANOMALY":262.9569,"EPHEMERIS_TYPE":0,"CLASSIFICATION_TYPE":"U","NORAD_CAT_ID":49308,"ELEMENT_SET_NO":999,"REV_AT_EPOCH":20240,"BSTAR":0.00019783,"MEAN_MOTION_DOT":9.3e-7,"MEAN_MOTION_DDOT":0},{"OBJECT_NAME":"ONEWEB-0383","OBJECT_ID":"2021-090AG","EPOCH":"2025-11-21T10:59:58.052256","MEAN_MOTION":13.14501689,"ECCENTRICITY":0.0001837,"INCLINATION":87.899,"RA_OF_ASC_NODE":331.0759,"ARG_OF_PERICENTER":97.0127,"MEAN_ANOMALY":263.1211,"EPHEMERIS_TYPE":0,"CLASSIFICATION_TYPE":"U","NORAD_CAT_ID":49309,"ELEMENT_SET_NO":999,"REV_AT_EPOCH":20030,"BSTAR":0.00040411,"MEAN_MOTION_DOT":1.63e-6,"MEAN_MOTION_DDOT":0},{"OBJECT_NAME":"ONEWEB-0384","OBJECT_ID":"2021-090AH","EPOCH":"2025-11-21T11:45:50.896224","MEAN_MOTION":13.20798211,"ECCENTRICITY":0.0001673,"INCLINATION":87.9196,"RA_OF_ASC_NODE":315.8892,"ARG_OF_PERICENTER":106.1651,"MEAN_ANOMALY":253.9666,"EPHEMERIS_TYPE":0,"CLASSIFICATION_TYPE":"U","NORAD_CAT_ID":49310,"ELEMENT_SET_NO":999,"REV_AT_EPOCH":20241,"BSTAR":-7.8303e-5,"MEAN_MOTION_DOT":-1.9e-7,"MEAN_MOTION_DDOT":0},{"OBJECT_NAME":"ONEWEB-0385","OBJECT_ID":"2021-090AJ","EPOCH":"2025-11-21T11:43:20.267328","MEAN_MOTION":13.2077211,"ECCENTRICITY":0.0001729,"INCLINATION":87.9178,"RA_OF_ASC_NODE":315.8623,"ARG_OF_PERICENTER":92.5696,"MEAN_ANOMALY":267.5635,"EPHEMERIS_TYPE":0,"CLASSIFICATION_TYPE":"U","NORAD_CAT_ID":49311,"ELEMENT_SET_NO":999,"REV_AT_EPOCH":20238,"BSTAR":0.00019012,"MEAN_MOTION_DOT":9.0e-7,"MEAN_MOTION_DDOT":0},{"OBJECT_NAME":"ONEWEB-0386","OBJECT_ID":"2021-090AK","EPOCH":"2025-11-21T12:08:20.534208","MEAN_MOTION":13.20773833,"ECCENTRICITY":0.0001727,"INCLINATION":87.9185,"RA_OF_ASC_NODE":315.8411,"ARG_OF_PERICENTER":96.6836,"MEAN_ANOMALY":263.4494,"EPHEMERIS_TYPE":0,"CLASSIFICATION_TYPE":"U","NORAD_CAT_ID":49312,"ELEMENT_SET_NO":999,"REV_AT_EPOCH":20240,"BSTAR":0.00017734,"MEAN_MOTION_DOT":8.5e-7,"MEAN_MOTION_DDOT":0},{"OBJECT_NAME":"ONEWEB-0387","OBJECT_ID":"2021-090AL","EPOCH":"2025-11-21T11:45:38.096928","MEAN_MOTION":13.20773256,"ECCENTRICITY":0.0001505,"INCLINATION":87.9177,"RA_OF_ASC_NODE":315.8915,"ARG_OF_PERICENTER":87.0744,"MEAN_ANOMALY":273.0562,"EPHEMERIS_TYPE":0,"CLASSIFICATION_TYPE":"U","NORAD_CAT_ID":49313,"ELEMENT_SET_NO":999,"REV_AT_EPOCH":20240,"BSTAR":-3.5926e-7,"MEAN_MOTION_DOT":1.3e-7,"MEAN_MOTION_DDOT":0},{"OBJECT_NAME":"ONEWEB-0388","OBJECT_ID":"2021-090AM","EPOCH":"2025-11-21T14:15:21.843648","MEAN_MOTION":13.19726912,"ECCENTRICITY":0.0001771,"INCLINATION":87.9201,"RA_OF_ASC_NODE":346.2849,"ARG_OF_PERICENTER":98.1826,"MEAN_ANOMALY":261.9508,"EPHEMERIS_TYPE":0,"CLASSIFICATION_TYPE":"U","NORAD_CAT_ID":49314,"ELEMENT_SET_NO":999,"REV_AT_EPOCH":19903,"BSTAR":-0.0001627,"MEAN_MOTION_DOT":-5.2e-7,"MEAN_MOTION_DDOT":0},{"OBJECT_NAME":"ONEWEB-0389","OBJECT_ID":"2021-132A","EPOCH":"2025-11-21T14:08:28.475808","MEAN_MOTION":13.17648806,"ECCENTRICITY":0.0001413,"INCLINATION":87.9136,"RA_OF_ASC_NODE":47.152,"ARG_OF_PERICENTER":111.1304,"MEAN_ANOMALY":248.9978,"EPHEMERIS_TYPE":0,"CLASSIFICATION_TYPE":"U","NORAD_CAT_ID":50469,"ELEMENT_SET_NO":999,"REV_AT_EPOCH":19074,"BSTAR":-0.00017739,"MEAN_MOTION_DOT":-5.6e-7,"MEAN_MOTION_DDOT":0},{"OBJECT_NAME":"ONEWEB-0390","OBJECT_ID":"2021-132B","EPOCH":"2025-11-21T14:10:52.940064","MEAN_MOTION":13.17687498,"ECCENTRICITY":0.0001446,"INCLINATION":87.9122,"RA_OF_ASC_NODE":47.1551,"ARG_OF_PERICENTER":87.8965,"MEAN_ANOMALY":272.2332,"EPHEMERIS_TYPE":0,"CLASSIFICATION_TYPE":"U","NORAD_CAT_ID":50470,"ELEMENT_SET_NO":999,"REV_AT_EPOCH":19074,"BSTAR":-0.020599,"MEAN_MOTION_DOT":-7.982e-5,"MEAN_MOTION_DDOT":0},{"OBJECT_NAME":"ONEWEB-0391","OBJECT_ID":"2021-132C","EPOCH":"2025-11-21T06:55:55.871904","MEAN_MOTION":13.17646782,"ECCENTRICITY":8.43e-5,"INCLINATION":87.9124,"RA_OF_ASC_NODE":47.2253,"ARG_OF_PERICENTER":104.8983,"MEAN_ANOMALY":255.2242,"EPHEMERIS_TYPE":0,"CLASSIFICATION_TYPE":"U","NORAD_CAT_ID":50471,"ELEMENT_SET_NO":999,"REV_AT_EPOCH":19070,"BSTAR":0.00019776,"MEAN_MOTION_DOT":9.0e-7,"MEAN_MOTION_DDOT":0}]
