ONEWEB-0375             
1 49301U 21090Y   25325.45056395 -.00000054  00000+0 -16386-3 0  9990
2 49301  87.9178 315.8651 0001350  99.8235 260.3051 13.20773021203102
ONEWEB-0376             
1 49302U 21090Z   25325.45027650 -.00000003  00000+0 -40465-4 0  9993
2 49302  87.9213 346.2876 0002070  93.4334 266.7036 13.19726039199056
ONEWEB-0377             
1 49303U 21090AA  25325.51225455  .00000056  00000+0  10602-3 0  9999
2 49303  87.9182 315.8524 0001678  83.3406 276.7918 13.20773312203105
ONEWEB-0378             
1 49304U 21090AB  25325.45857993  .00000035  00000+0  53703-4 0  9998
2 49304  87.9184 315.8777 0001746  92.2129 267.9204 13.20774719202364
ONEWEB-0379             
1 49305U 21090AC  25325.46466441  .00000199  00000+0  50250-3 0  9998
2 49305  87.8985 331.0907 0001848  95.3002 264.8338 13.14503632200274
ONEWEB-0380             
1 49306U 21090AD  25325.44710569 -.00000122  00000+0 -33587-3 0  9992
2 49306  87.9209 346.3113 0001640  94.1716 265.9604 13.19726871199027
ONEWEB-0381             
1 49307U 21090AE  25325.50895198  .00000049  00000+0  89418-4 0  9993
2 49307  87.9180 315.8567 0001592  92.3425 267.7890 13.20773406202416
ONEWEB-0382             
1 49308U 21090AF  25325.49633760  .00000093  00000+0  19783-3 0  9993
2 49308  87.9185 315.8540 0001654  97.1752 262.9569 13.20773056202408
ONEWEB-0383             
1 49309U 21090AG  25325.45831079  .00000163  00000+0  40411-3 0  9993
2 49309  87.8990 331.0759 0001837  97.0127 263.1211 13.14501689200300
ONEWEB-0384             
1 49310U 21090AH  25325.49017241 -.00000019  00000+0 -78303-4 0  9990
2 49310  87.9196 315.8892 0001673 106.1651 253.9666 13.20798211202412
ONEWEB-0385             
1 49311U 21090AJ  25325.48842902  .00000090  00000+0  19012-3 0  9998
2 49311  87.9178 315.8623 0001729  92.5696 267.5635 13.20772110202387
ONEWEB-0386             
1 49312U 21090AK  25325.50579322  .00000085  00000+0  17734-3 0  9998
2 49312  87.9185 315.8411 0001727  96.6836 263.4494 13.20773833202404
ONEWEB-0387             
1 49313U 21090AL  25325.49002427  .00000013  00000+0 -35926-6 0  9992
2 49313  87.9177 315.8915 0001505  87.0744 273.0562 13.20773256202403
ONEWEB-0388             
1 49314U 21090AM  25325.59400282 -.00000052  00000+0 -16270-3 0  9997
2 49314  87.9201 346.2849 0001771  98.1826 261.9508 13.19726912199030
ONEWEB-0389             
1 50469U 21132A   25325.58921847 -.00000056  00000+0 -17739-3 0  9996
2 50469  87.9136  47.1520 0001413 111.1304 248.9978 13.17648806190741
ONEWEB-0390             
1 50470U 21132B   25325.59089051 -.00007982  00000+0 -20599-1 0  9992
2 50470  87.9122  47.1551 0001446  87.8965 272.2332 13.17687498190744
ONEWEB-0391             
1 50471U 21132C   25325.28884111  .00000090  00000+0  19776-3 0  9997
2 50471  87.9124  47.2253 0000843 104.8983 255.2242 13.17646782190705
